STARLINK-31416          
1 59355U 24060H   26068.56825086 -.00008558  00000+0 -30159-3 0  9999
2 59355  43.0026 260.5943 0001286 274.5772  85.4932 15.27606821110049
KUIPER-00204            
1 67145U 25301N   26068.39760395  .00020516  00000+0  79568-3 0  9999
2 67145  51.8870  71.6415 0003071 354.8934   5.2016 15.26088400 13737
